{"type" : "FeatureCollection", "features" : [{"type" : "Feature", "properties" : {"area_id" : 31, "area_code" : "11200650", "area_name" : "성수1가1동", "real_name" : null}, "geometry" : {"type":"MultiPolygon","coordinates":[[[[127.049593701,37.544179128],[127.049592474,37.544175353],[127.049686743,37.544146818],[127.049700278,37.54414272],[127.049811403,37.544109191],[127.050448709,37.543916895],[127.050512869,37.543897429],[127.050624124,37.543863672],[127.050662304,37.543852088],[127.050752669,37.54382517],[127.050800698,37.543810864],[127.051014247,37.543746533],[127.05125983,37.543671923],[127.051687824,37.543541893],[127.051707597,37.543535886],[127.051799116,37.543510009],[127.051913533,37.543477658],[127.051911053,37.54347358],[127.051906973,37.543466871],[127.051906293,37.543465754],[127.051857041,37.543384754],[127.051849034,37.543371371],[127.05177487,37.543247399],[127.051772753,37.543247401],[127.051760828,37.543247407],[127.051760682,37.543247407],[127.051736309,37.543247418],[127.051707659,37.543203505],[127.05170504,37.543150673],[127.051704647,37.543142752],[127.051704285,37.543135453],[127.051703911,37.543134838],[127.051701703,37.543131791],[127.051693651,37.543122264],[127.051678148,37.543103921],[127.051505213,37.542899307],[127.051497053,37.542889653],[127.051332118,37.54264786],[127.051018094,37.542083755],[127.051003072,37.542040974],[127.050999259,37.542030116],[127.0509228,37.541812371],[127.050890028,37.541718907],[127.050885194,37.541691089],[127.050848556,37.541480197],[127.050844109,37.541454591],[127.050843412,37.541452283],[127.050842037,37.541445806],[127.050838048,37.541436391],[127.050826998,37.541409186],[127.050819914,37.541391124],[127.050819031,37.541388872],[127.050817045,37.54138285],[127.050802079,37.54133745],[127.050782803,37.541275046],[127.050766646,37.541223615],[127.05074754,37.541163709],[127.050747236,37.541162748],[127.050695961,37.54100029],[127.05068417,37.540965381],[127.050665168,37.540906663],[127.050687006,37.540886954],[127.050646695,37.540787667],[127.050629356,37.540729909],[127.050628418,37.540726778],[127.050626531,37.540720486],[127.050626457,37.540720239],[127.05062638,37.540719982],[127.050624567,37.540713943],[127.050624542,37.54071386],[127.050551624,37.540470986],[127.05050083,37.540278314],[127.050499192,37.540272099],[127.050498798,37.540270608],[127.05045653,37.540110277],[127.050456446,37.540109698],[127.050456243,37.540108312],[127.050456136,37.540107582],[127.050445366,37.540034209],[127.050443296,37.540020099],[127.050735746,37.539943816],[127.05119758,37.539823347],[127.051197786,37.539823293],[127.051198862,37.539823013],[127.051484144,37.539748596],[127.051484207,37.53974858],[127.051484531,37.539748494],[127.051536324,37.539734984],[127.051536024,37.539734521],[127.051535493,37.539733706],[127.051535301,37.539733412],[127.051507191,37.539690351],[127.051505046,37.539687069],[127.051470944,37.539634826],[127.051470863,37.539634753],[127.051470615,37.539634525],[127.051409643,37.539578427],[127.051380795,37.539551902],[127.051330015,37.53951011],[127.051280044,37.539468983],[127.051232703,37.539424853],[127.051197741,37.539392265],[127.051197556,37.539392092],[127.051197365,37.539391914],[127.051177518,37.539373415],[127.051171294,37.539368685],[127.051171129,37.539368559],[127.051164254,37.539363332],[127.051071498,37.539292815],[127.051058657,37.539280052],[127.05105572,37.539277135],[127.051055618,37.539277034],[127.051055508,37.539276926],[127.051022001,37.539243622],[127.051018089,37.539237895],[127.050994878,37.539203944],[127.050978444,37.539179906],[127.050978245,37.539179614],[127.050977796,37.539178955],[127.050986659,37.539173179],[127.05098769,37.539172508],[127.050988034,37.539172284],[127.051016648,37.539153633],[127.05104347,37.539138225],[127.051232747,37.539029486],[127.051235677,37.539027803],[127.051235705,37.539027787],[127.051269457,37.539008397],[127.051292036,37.538997153],[127.051324427,37.538981022],[127.051334175,37.538976167],[127.051334244,37.538976133],[127.051339874,37.538973329],[127.051346913,37.538969823],[127.051349797,37.538968387],[127.051349831,37.53896837],[127.051424866,37.538931001],[127.051454364,37.538919242],[127.051485248,37.538906933],[127.051486982,37.538906242],[127.051487559,37.538906012],[127.051527043,37.538890276],[127.051527202,37.538890212],[127.051527685,37.53889002],[127.051559089,37.538877502],[127.051560059,37.53887723],[127.051560817,37.538877017],[127.051567289,37.538875196],[127.051567341,37.538875181],[127.051679484,37.538843622],[127.051706901,37.538835906],[127.051708633,37.538835417],[127.051709204,37.538835256],[127.051721259,37.538826762],[127.051733096,37.53881842],[127.051749185,37.538807083],[127.051755126,37.5388029],[127.051800284,37.538730714],[127.051822275,37.538695573],[127.051829002,37.538679765],[127.051833107,37.538670121],[127.051854966,37.538618755],[127.051855337,37.538617883],[127.051855792,37.538616812],[127.051935214,37.538514126],[127.052004203,37.538410267],[127.052012058,37.538398441],[127.052012381,37.538397956],[127.052012413,37.538397907],[127.052012516,37.538397753],[127.052014625,37.538394578],[127.052003394,37.538384435],[127.052003212,37.53838427],[127.052002658,37.53838377],[127.051993312,37.538375329],[127.051944682,37.538331412],[127.051944561,37.538331306],[127.051944432,37.538331193],[127.051867887,37.538262061],[127.051824363,37.538227454],[127.051824318,37.538227418],[127.051814865,37.538219902],[127.051806981,37.53821546],[127.051806679,37.53821529],[127.05180637,37.538215116],[127.051772457,37.538196016],[127.051765387,37.538191563],[127.051730043,37.538169312],[127.051725196,37.538165644],[127.051687153,37.538136856],[127.051683775,37.5381343],[127.051620467,37.538086395],[127.051593191,37.538070962],[127.051592828,37.538070756],[127.05159172,37.538070129],[127.051578715,37.53806277],[127.051578358,37.538062568],[127.051575303,37.538060841],[127.051574681,37.53806049],[127.051574472,37.538060372],[127.051570825,37.538058309],[127.051535044,37.538038062],[127.051534709,37.538037872],[127.051534195,37.538037581],[127.051532003,37.538036338],[127.051528686,37.538034459],[127.051516196,37.538027386],[127.051515014,37.538026693],[127.051513919,37.53802605],[127.051513563,37.53802584],[127.051486408,37.538009883],[127.051486133,37.538009722],[127.051485108,37.538009119],[127.051484205,37.538008589],[127.051474053,37.538002622],[127.051449054,37.537987933],[127.051439832,37.537982514],[127.051419926,37.537970816],[127.051394261,37.537955734],[127.051302546,37.537865024],[127.05130245,37.537864942],[127.051302321,37.537864842],[127.051265839,37.537828722],[127.05126129,37.537824219],[127.051261263,37.537824193],[127.051218885,37.53778228],[127.051186931,37.537748207],[127.051186762,37.537748028],[127.051186587,37.53774784],[127.051177093,37.537737727],[127.051141108,37.537699348],[127.05110232,37.537654086],[127.05109828,37.537649372],[127.05109667,37.537647494],[127.051096154,37.537646891],[127.051095744,37.537646414],[127.051089288,37.537638879],[127.0510315,37.53757144],[127.051025147,37.537562852],[127.051025121,37.537562817],[127.051025039,37.537562706],[127.051021981,37.537558572],[127.051016038,37.53755054],[127.050978459,37.537499752],[127.050954716,37.537463151],[127.050954654,37.537463057],[127.050954465,37.537462764],[127.05095205,37.537459041],[127.050929109,37.537423676],[127.050920099,37.537409788],[127.050900204,37.537384033],[127.050900176,37.537383997],[127.050900123,37.537383929],[127.050894436,37.537376567],[127.050893823,37.537375776],[127.050893207,37.53737498],[127.050889513,37.537370202],[127.050881822,37.537360249],[127.050880762,37.537358877],[127.050876228,37.537353006],[127.050863093,37.537336],[127.050834975,37.5372996],[127.050816175,37.537263319],[127.050810203,37.537251797],[127.050803115,37.537220155],[127.050802371,37.537216832],[127.050799763,37.537205192],[127.050799723,37.537205012],[127.050799694,37.53720488],[127.050797827,37.537196548],[127.050796031,37.537188531],[127.050786535,37.537165421],[127.050785415,37.537162697],[127.050767726,37.537119644],[127.050767694,37.537119565],[127.050765409,37.537113558],[127.050749736,37.537072364],[127.05074761,37.537066777],[127.050747496,37.537066476],[127.050747333,37.53706605],[127.050744721,37.537059186],[127.050720509,37.537006019],[127.05072049,37.537005978],[127.050720082,37.53700508],[127.050719659,37.53700415],[127.05071479,37.536998723],[127.050714027,37.536997875],[127.050713261,37.536997022],[127.050656089,37.536933259],[127.050652284,37.536929014],[127.050647949,37.53692418],[127.050647646,37.536923842],[127.050646592,37.536922666],[127.050646245,37.536922281],[127.050645895,37.53692189],[127.050603697,37.536874831],[127.050599255,37.536869876],[127.050599226,37.536869845],[127.050589278,37.536858744],[127.050586212,37.536855325],[127.050568184,37.536835225],[127.050553652,37.536819022],[127.050544993,37.536809384],[127.05054497,37.536809359],[127.050542811,37.53680696],[127.050542624,37.536806753],[127.050542432,37.536806545],[127.050473883,37.53673667],[127.050448502,37.536705622],[127.050427922,37.536680447],[127.050421258,37.536670162],[127.050420366,37.536668785],[127.050420069,37.536668326],[127.050397861,37.536634057],[127.050388052,37.536606788],[127.0503874,37.536604976],[127.05038724,37.53660453],[127.050387255,37.536604268],[127.050388148,37.536589048],[127.050388152,37.536588975],[127.050388388,37.536584966],[127.050388568,37.536581759],[127.050389121,37.536572554],[127.050389201,37.536571868],[127.050389395,37.536570264],[127.050396248,37.536515348],[127.050396247,37.536515262],[127.05039624,37.53651514],[127.050395971,37.536510263],[127.050395892,37.53650884],[127.050395871,37.536508458],[127.050395864,37.53650833],[127.050395801,37.536507187],[127.050395627,37.536504029],[127.050394574,37.536504023],[127.050393664,37.53650402],[127.050393848,37.536501606],[127.050393988,37.536499812],[127.050382388,37.536460289],[127.050375245,37.536435959],[127.050370719,37.536420539],[127.050370034,37.536418201],[127.050362056,37.536391021],[127.050360713,37.536378714],[127.050362695,37.536362343],[127.050364026,37.536357017],[127.050366136,37.536348628],[127.050368375,37.536341694],[127.050371214,37.536332892],[127.050380782,37.536303239],[127.050384871,37.536292913],[127.05040362,37.536242638],[127.05040416,37.536238025],[127.050405472,37.536226733],[127.050406411,37.536218662],[127.050406354,37.536214115],[127.050406062,37.53619074],[127.050405704,37.536162152],[127.050407016,37.536109498],[127.050376975,37.535967514],[127.050326735,37.535907617],[127.05032223,37.535902317],[127.05032034,37.535900066],[127.050304206,37.535881558],[127.050287279,37.535863482],[127.050284128,37.535860216],[127.050274947,37.535850292],[127.050253535,37.535827469],[127.050243143,37.535816392],[127.050239788,37.535809256],[127.05023861,37.535806733],[127.050226674,37.535808523],[127.050225303,37.535804307],[127.050224362,37.535801442],[127.050222764,37.535796533],[127.050211439,37.5357641],[127.050211325,37.535763786],[127.050216597,37.53572697],[127.050139196,37.535535215],[127.050138688,37.535533973],[127.050110174,37.535463319],[127.049696935,37.53444734],[127.049646571,37.534322471],[127.049645445,37.53431968],[127.049614834,37.534243784],[127.049609298,37.534238371],[127.049606126,37.534230173],[127.049596402,37.534205563],[127.049578044,37.534158808],[127.049558449,37.534109027],[127.049537598,37.534056112],[127.049509313,37.533984864],[127.049432572,37.533793975],[127.049330756,37.533542206],[127.04919764,37.53321164],[127.0489821,37.532676158],[127.048955916,37.532610768],[127.048947696,37.532590239],[127.048920365,37.532521988],[127.048919413,37.532519608],[127.048712829,37.53264366],[127.04860995,37.532705439],[127.048489706,37.532777644],[127.047873935,37.533147405],[127.047042689,37.533646545],[127.04696582,37.533692359],[127.046680818,37.533862218],[127.04666064,37.533874067],[127.046576795,37.5339233],[127.046558139,37.533934254],[127.046137925,37.534184127],[127.046044348,37.53423977],[127.04574981,37.53432332],[127.045669972,37.534345966],[127.045332904,37.534441534],[127.04504625,37.534517115],[127.04490676,37.534554217],[127.044521347,37.534656725],[127.044398844,37.534689307],[127.04408533,37.534772421],[127.04398455,37.53480017],[127.043806753,37.534848717],[127.043389834,37.5349589],[127.043338117,37.534972567],[127.043264118,37.534992124],[127.043013669,37.535058191],[127.042612697,37.535163964],[127.042152547,37.535285325],[127.041563818,37.535441191],[127.041550415,37.53544473],[127.041105408,37.535562231],[127.040943287,37.535604596],[127.040725516,37.535661504],[127.040388114,37.535750471],[127.04038815,37.535823154],[127.040211174,37.53582348],[127.040161787,37.535823571],[127.039614901,37.535824812],[127.039369015,37.53582528],[127.039159648,37.535825678],[127.037969675,37.535827178],[127.037694246,37.535827524],[127.037685507,37.535827528],[127.037643975,37.535827553],[127.036658605,37.535828134],[127.035806664,37.535829563],[127.035807791,37.536294706],[127.035808423,37.536555733],[127.035811549,37.537847156],[127.035676631,37.538018079],[127.035488093,37.538260779],[127.035216995,37.538608328],[127.035152061,37.538691487],[127.035014904,37.538867824],[127.034871402,37.53905245],[127.034732524,37.539231137],[127.034200593,37.540010356],[127.033988511,37.540306562],[127.033473855,37.541021628],[127.033288291,37.541279446],[127.033209748,37.541378685],[127.033151824,37.541451869],[127.0327944,37.541660481],[127.032281289,37.541960638],[127.032191694,37.542011981],[127.031485494,37.542419114],[127.031488223,37.54242652],[127.031485532,37.542461487],[127.031471293,37.542646555],[127.031463895,37.542742677],[127.031458185,37.542816873],[127.031451326,37.54290603],[127.031451122,37.542908686],[127.031444751,37.542991443],[127.031431649,37.543161653],[127.031426934,37.543222868],[127.031422543,37.543279964],[127.031422037,37.543286524],[127.031419859,37.543314834],[127.031413861,37.543392754],[127.03140802,37.543468655],[127.031402561,37.543539609],[127.031396859,37.54361369],[127.031388884,37.543717332],[127.03138114,37.54381793],[127.031378469,37.543852649],[127.031378168,37.543856531],[127.031374866,37.543899418],[127.031371465,37.543943577],[127.031369666,37.543966958],[127.031360526,37.544085736],[127.031356585,37.544136951],[127.031356428,37.544142465],[127.031343957,37.544569296],[127.031343759,37.544581097],[127.031341747,37.544729338],[127.031339625,37.544740152],[127.031293854,37.544967574],[127.031280659,37.545055495],[127.031279856,37.545056325],[127.031276971,37.545059353],[127.031234324,37.545199991],[127.031233804,37.545201647],[127.031232979,37.545205046],[127.03121721,37.545304446],[127.03119389,37.545458885],[127.031184909,37.54551836],[127.031183452,37.545528027],[127.031167174,37.545687418],[127.031370973,37.545611192],[127.031421736,37.545592206],[127.032745324,37.545097141],[127.033160615,37.544941804],[127.033382338,37.544951513],[127.033388034,37.544951763],[127.033510191,37.544957111],[127.033510386,37.544957119],[127.033510494,37.544957124],[127.033606431,37.544961325],[127.03436047,37.545433222],[127.034516245,37.545546063],[127.0345166,37.54554632],[127.034517666,37.545547092],[127.03465895,37.545649436],[127.035311366,37.546114913],[127.035312579,37.546115778],[127.035312979,37.546116064],[127.035585415,37.546310434],[127.036407353,37.547172304],[127.036498502,37.547284747],[127.03652949,37.547322972],[127.036719066,37.547556822],[127.03672867,37.547568668],[127.036953622,37.54784615],[127.036971841,37.547839209],[127.037388586,37.547680429],[127.037399242,37.547676368],[127.037820133,37.547571022],[127.037859181,37.547561449],[127.037797669,37.547409838],[127.037781753,37.547370596],[127.037766548,37.54733312],[127.037818743,37.547319778],[127.037872816,37.54730595],[127.039208477,37.546964419],[127.039230652,37.54695875],[127.039322188,37.547141003],[127.039323865,37.547144342],[127.039368146,37.54713094],[127.039426829,37.547113173],[127.039445105,37.54710764],[127.039446597,37.547107188],[127.039479955,37.547097089],[127.03964339,37.547047635],[127.039802651,37.546999291],[127.03994471,37.546956276],[127.040048515,37.546924914],[127.04008356,37.546914326],[127.040092182,37.546911737],[127.040112296,37.546905422],[127.040115343,37.546913272],[127.040117191,37.546918035],[127.040124941,37.546915894],[127.040199401,37.546895331],[127.040209453,37.546892556],[127.0402346,37.546885615],[127.040281614,37.546872716],[127.040393872,37.546841685],[127.040464198,37.546822072],[127.040504198,37.546810916],[127.040525003,37.546805304],[127.040546456,37.546799315],[127.04066269,37.546767453],[127.040749022,37.546743665],[127.040775381,37.546736404],[127.040818657,37.54672446],[127.040837589,37.546719262],[127.040925903,37.546695017],[127.04107492,37.546653899],[127.041117126,37.546642254],[127.041153027,37.546632484],[127.041345097,37.546579072],[127.041475846,37.546542871],[127.041521486,37.546530233],[127.041555169,37.54652095],[127.041736591,37.546471441],[127.04174036,37.546470383],[127.041784968,37.546457833],[127.042093379,37.546371067],[127.04216954,37.54634964],[127.042342634,37.546301431],[127.042555895,37.54624136],[127.04261369,37.54622508],[127.042700998,37.546200487],[127.042783189,37.546177527],[127.042783267,37.546177504],[127.042860876,37.546155822],[127.043031437,37.546109605],[127.043171082,37.546071809],[127.043219897,37.546058596],[127.043340903,37.546029541],[127.043378479,37.546020519],[127.04338607,37.546018696],[127.043392185,37.546016787],[127.043527073,37.545974693],[127.043537367,37.54597148],[127.043551661,37.545967019],[127.04359281,37.545954682],[127.043668418,37.545932011],[127.043692519,37.545956865],[127.043825371,37.546093862],[127.043837829,37.546106649],[127.04388229,37.546116438],[127.043882449,37.54611682],[127.043882599,37.546117195],[127.043906636,37.546177268],[127.043914296,37.54618512],[127.043947618,37.546219327],[127.043961937,37.546216208],[127.044133043,37.54617892],[127.044154888,37.54617416],[127.044226669,37.546159051],[127.044538888,37.546089507],[127.044565471,37.546157615],[127.044566921,37.546157338],[127.044567404,37.546157246],[127.044570058,37.546156739],[127.044624607,37.546146306],[127.044652047,37.54614106],[127.044638574,37.546176317],[127.044621772,37.546218057],[127.044618798,37.546225393],[127.044632274,37.546223505],[127.044735944,37.54621225],[127.044753522,37.546210341],[127.044753774,37.546210314],[127.044782542,37.546207191],[127.044863546,37.546198397],[127.044918175,37.546191763],[127.045052008,37.546174784],[127.045097902,37.546171236],[127.045189943,37.546163916],[127.045210275,37.546162297],[127.045227051,37.546160962],[127.045337992,37.546152136],[127.045345834,37.546151503],[127.045360136,37.546144074],[127.04536465,37.546141727],[127.04538157,37.546132938],[127.045582341,37.546028438],[127.045690361,37.545994259],[127.045698091,37.545991812],[127.045759659,37.545972329],[127.04591158,37.545921674],[127.045913265,37.545921114],[127.045908595,37.545911057],[127.045901991,37.545896626],[127.045902042,37.54589663],[127.045902091,37.545896634],[127.045920661,37.545898195],[127.045924121,37.545898488],[127.045935696,37.545917426],[127.045935732,37.545917484],[127.045942914,37.545929235],[127.045947857,37.545929062],[127.045948034,37.545929056],[127.045948131,37.545929052],[127.045953048,37.54592888],[127.045968938,37.54592832],[127.045974803,37.545926733],[127.0459749,37.545926707],[127.045974932,37.545926698],[127.045991968,37.545922087],[127.04599217,37.545922507],[127.045998697,37.545936091],[127.046107956,37.54590557],[127.046211466,37.545875787],[127.046231491,37.545870025],[127.046242387,37.545867128],[127.046254334,37.545863466],[127.046374272,37.545828102],[127.046505135,37.545786958],[127.04651748,37.545783097],[127.046529834,37.545779532],[127.046646523,37.545742178],[127.04667334,37.545732349],[127.046675082,37.545731709],[127.046772511,37.545695992],[127.046780901,37.545692915],[127.046781446,37.545697661],[127.046781666,37.545699594],[127.046792534,37.545693738],[127.046792679,37.54569366],[127.046793123,37.545693421],[127.046807569,37.545685635],[127.047354423,37.545488324],[127.047354675,37.545488233],[127.047355029,37.545488105],[127.047355929,37.545487781],[127.047364992,37.545484509],[127.047381943,37.545478394],[127.04740083,37.545471581],[127.047400881,37.545471562],[127.04740107,37.545471494],[127.047402172,37.545471097],[127.047407467,37.545470298],[127.047410329,37.545469865],[127.047410187,37.54546931],[127.047409927,37.545468299],[127.047441292,37.545456976],[127.047453083,37.545452719],[127.047760608,37.545332734],[127.047776716,37.54532645],[127.047952887,37.545257714],[127.047952928,37.545257698],[127.047952465,37.545258959],[127.047948326,37.545270249],[127.048258724,37.545159859],[127.048439344,37.545095623],[127.048439893,37.545095427],[127.048455834,37.545089758],[127.048523375,37.545050719],[127.048563119,37.545038179],[127.048677613,37.545004581],[127.048733311,37.544988359],[127.048776208,37.54497179],[127.048870331,37.544934118],[127.049008667,37.544883615],[127.049044193,37.544843891],[127.049048077,37.544839549],[127.04911462,37.544814517],[127.049115038,37.54481436],[127.049116006,37.544813995],[127.049117074,37.544813592],[127.049121527,37.544807051],[127.049122184,37.544806086],[127.049225657,37.544654044],[127.049228952,37.544649201],[127.049230381,37.544646652],[127.049340541,37.544450219],[127.049347413,37.544448622],[127.049404202,37.54443543],[127.049417219,37.544367914],[127.049437705,37.544346267],[127.04944836,37.544335009],[127.049494394,37.544252452],[127.049494773,37.544251771],[127.0494949,37.544251544],[127.049532897,37.544183403],[127.049552744,37.54417888],[127.049570278,37.544174883],[127.049570443,37.544174846],[127.049570535,37.544174824],[127.049584926,37.544171545],[127.049593701,37.544179128]]]]}}, {"type" : "Feature", "properties" : {"area_id" : 32, "area_code" : "11200660", "area_name" : "성수1가2동", "real_name" : null}, "geometry" : {"type":"MultiPolygon","coordinates":[[[[127.046936227,37.553144966],[127.046888037,37.553114925],[127.046783875,37.553049074],[127.046744095,37.553023925],[127.046739216,37.553020845],[127.046724767,37.553011706],[127.046724397,37.553011472],[127.04671361,37.553004287],[127.046793862,37.552939122],[127.046854308,37.552888419],[127.046891819,37.552857933],[127.046947468,37.552794699],[127.047056919,37.552675275],[127.047162665,37.552527841],[127.047322133,37.552301381],[127.047351355,37.552259875],[127.047351989,37.55225911],[127.047449605,37.552141584],[127.047534879,37.552040097],[127.047556532,37.5520218],[127.047557629,37.552020871],[127.047756584,37.551852723],[127.047847021,37.551788446],[127.047856132,37.551788569],[127.047873219,37.551788337],[127.047927695,37.551784802],[127.047932051,37.551784521],[127.047979128,37.551781321],[127.048018067,37.551778649],[127.048054359,37.551776183],[127.048080996,37.551774388],[127.048082355,37.551774298],[127.048121621,37.55177167],[127.048166062,37.551768597],[127.048198719,37.551766341],[127.048242921,37.551763451],[127.048249012,37.551763034],[127.048261749,37.551762164],[127.048274922,37.551760806],[127.048314402,37.551754655],[127.048363239,37.551746859],[127.048421741,37.551737666],[127.048461211,37.551731396],[127.048477629,37.551728787],[127.048545432,37.551718109],[127.048612475,37.551707434],[127.048675731,37.551697416],[127.048695476,37.551694254],[127.0487276,37.551689106],[127.048796274,37.55167833],[127.048853146,37.551669215],[127.048883879,37.551662987],[127.048954169,37.551650101],[127.049303587,37.551586044],[127.049538765,37.551543125],[127.049807141,37.551493695],[127.049811815,37.551492791],[127.049890807,37.551478209],[127.049968395,37.551462517],[127.050247462,37.551407487],[127.050369566,37.551383138],[127.050378038,37.551381449],[127.05070679,37.551319685],[127.050733926,37.551314564],[127.050856298,37.55128899],[127.051105172,37.551236753],[127.051254247,37.551205237],[127.051712675,37.551108583],[127.052065687,37.551031162],[127.052177316,37.551007293],[127.052194453,37.551003628],[127.052181007,37.550968233],[127.05213808,37.550853564],[127.052135996,37.550848],[127.052131951,37.550837196],[127.052110854,37.550817092],[127.052096217,37.550803148],[127.051952469,37.550666175],[127.051921623,37.550587656],[127.05186966,37.550455287],[127.051842534,37.550386202],[127.051711967,37.550053053],[127.051711151,37.550050991],[127.051648453,37.5498941],[127.051566432,37.549687934],[127.051546257,37.549636348],[127.051531975,37.549599827],[127.051528479,37.549590887],[127.051484031,37.549476416],[127.051400339,37.549262783],[127.051355803,37.549149086],[127.051255667,37.54889614],[127.051249442,37.548880087],[127.051245339,37.548868402],[127.051239657,37.548853826],[127.051201777,37.548756662],[127.051164121,37.548662064],[127.051160834,37.548653606],[127.051137525,37.548590023],[127.051126484,37.548560088],[127.05111182,37.54852214],[127.051110478,37.548518668],[127.051094291,37.548477202],[127.051071223,37.548419927],[127.051052115,37.548373417],[127.051024344,37.548304177],[127.051006456,37.548258252],[127.050985736,37.548206328],[127.050959174,37.548146034],[127.050958277,37.548143999],[127.050957127,37.548141094],[127.050843112,37.547853028],[127.050831956,37.547818093],[127.050823952,37.54779751],[127.050823927,37.547797445],[127.050812209,37.547767311],[127.050791204,37.547713639],[127.050776831,37.547676263],[127.050765599,37.547647229],[127.050748356,37.547603285],[127.050730266,37.547557983],[127.050713015,37.547514725],[127.050695413,37.547470052],[127.050676233,37.547421459],[127.050660196,37.547380759],[127.05064325,37.547337599],[127.050629138,37.547301403],[127.05060166,37.547230984],[127.050580228,37.547177043],[127.050562204,37.547131388],[127.050546824,37.547092526],[127.050530966,37.54705261],[127.050515278,37.5470129],[127.050497553,37.546968424],[127.050488087,37.546943751],[127.050482986,37.546932518],[127.050471902,37.546907883],[127.05046872,37.546900809],[127.050457001,37.546872163],[127.050449167,37.546852929],[127.050321181,37.546534681],[127.050358141,37.546329924],[127.050339794,37.546284034],[127.050322291,37.546240254],[127.050110702,37.545709728],[127.050107389,37.545701467],[127.050027033,37.545501138],[127.049966884,37.545352093],[127.049878149,37.545053881],[127.049877046,37.545050173],[127.049693131,37.544484911],[127.049668029,37.54440822],[127.04965925,37.544381162],[127.049594746,37.544182351],[127.049593701,37.544179128],[127.049584926,37.544171545],[127.049570535,37.544174824],[127.049570443,37.544174846],[127.049570278,37.544174883],[127.049552744,37.54417888],[127.049532897,37.544183403],[127.0494949,37.544251544],[127.049494773,37.544251771],[127.049494394,37.544252452],[127.04944836,37.544335009],[127.049437705,37.544346267],[127.049417219,37.544367914],[127.049404202,37.54443543],[127.049347413,37.544448622],[127.049340541,37.544450219],[127.049230381,37.544646652],[127.049228952,37.544649201],[127.049225657,37.544654044],[127.049122184,37.544806086],[127.049121527,37.544807051],[127.049117074,37.544813592],[127.049116006,37.544813995],[127.049115038,37.54481436],[127.04911462,37.544814517],[127.049048077,37.544839549],[127.049044193,37.544843891],[127.049008667,37.544883615],[127.048870331,37.544934118],[127.048776208,37.54497179],[127.048733311,37.544988359],[127.048677613,37.545004581],[127.048563119,37.545038179],[127.048523375,37.545050719],[127.048455834,37.545089758],[127.048439893,37.545095427],[127.048439344,37.545095623],[127.048258724,37.545159859],[127.047948326,37.545270249],[127.047952465,37.545258959],[127.047952928,37.545257698],[127.047952887,37.545257714],[127.047776716,37.54532645],[127.047760608,37.545332734],[127.047453083,37.545452719],[127.047441292,37.545456976],[127.047409927,37.545468299],[127.047410187,37.54546931],[127.047410329,37.545469865],[127.047407467,37.545470298],[127.047402172,37.545471097],[127.04740107,37.545471494],[127.047400881,37.545471562],[127.04740083,37.545471581],[127.047381943,37.545478394],[127.047364992,37.545484509],[127.047355929,37.545487781],[127.047355029,37.545488105],[127.047354675,37.545488233],[127.047354423,37.545488324],[127.046807569,37.545685635],[127.046793123,37.545693421],[127.046792679,37.54569366],[127.046792534,37.545693738],[127.046781666,37.545699594],[127.046781446,37.545697661],[127.046780901,37.545692915],[127.046772511,37.545695992],[127.046675082,37.545731709],[127.04667334,37.545732349],[127.046646523,37.545742178],[127.046529834,37.545779532],[127.04651748,37.545783097],[127.046505135,37.545786958],[127.046374272,37.545828102],[127.046254334,37.545863466],[127.046242387,37.545867128],[127.046231491,37.545870025],[127.046211466,37.545875787],[127.046107956,37.54590557],[127.045998697,37.545936091],[127.04599217,37.545922507],[127.045991968,37.545922087],[127.045974932,37.545926698],[127.0459749,37.545926707],[127.045974803,37.545926733],[127.045968938,37.54592832],[127.045953048,37.54592888],[127.045948131,37.545929052],[127.045948034,37.545929056],[127.045947857,37.545929062],[127.045942914,37.545929235],[127.045935732,37.545917484],[127.045935696,37.545917426],[127.045924121,37.545898488],[127.045920661,37.545898195],[127.045902091,37.545896634],[127.045902042,37.54589663],[127.045901991,37.545896626],[127.045908595,37.545911057],[127.045913265,37.545921114],[127.04591158,37.545921674],[127.045759659,37.545972329],[127.045698091,37.545991812],[127.045690361,37.545994259],[127.045582341,37.546028438],[127.04538157,37.546132938],[127.04536465,37.546141727],[127.045360136,37.546144074],[127.045345834,37.546151503],[127.045337992,37.546152136],[127.045227051,37.546160962],[127.045210275,37.546162297],[127.045189943,37.546163916],[127.045097902,37.546171236],[127.045052008,37.546174784],[127.044918175,37.546191763],[127.044863546,37.546198397],[127.044782542,37.546207191],[127.044753774,37.546210314],[127.044753522,37.546210341],[127.044735944,37.54621225],[127.044632274,37.546223505],[127.044618798,37.546225393],[127.044621772,37.546218057],[127.044638574,37.546176317],[127.044652047,37.54614106],[127.044624607,37.546146306],[127.044570058,37.546156739],[127.044567404,37.546157246],[127.044566921,37.546157338],[127.044565471,37.546157615],[127.044538888,37.546089507],[127.044226669,37.546159051],[127.044154888,37.54617416],[127.044133043,37.54617892],[127.043961937,37.546216208],[127.043947618,37.546219327],[127.043914296,37.54618512],[127.043906636,37.546177268],[127.043882599,37.546117195],[127.043882449,37.54611682],[127.04388229,37.546116438],[127.043837829,37.546106649],[127.043825371,37.546093862],[127.043692519,37.545956865],[127.043668418,37.545932011],[127.04359281,37.545954682],[127.043551661,37.545967019],[127.043537367,37.54597148],[127.043527073,37.545974693],[127.043392185,37.546016787],[127.04338607,37.546018696],[127.043378479,37.546020519],[127.043340903,37.546029541],[127.043219897,37.546058596],[127.043171082,37.546071809],[127.043031437,37.546109605],[127.042860876,37.546155822],[127.042783267,37.546177504],[127.042783189,37.546177527],[127.042700998,37.546200487],[127.04261369,37.54622508],[127.042555895,37.54624136],[127.042342634,37.546301431],[127.04216954,37.54634964],[127.042093379,37.546371067],[127.041784968,37.546457833],[127.04174036,37.546470383],[127.041736591,37.546471441],[127.041555169,37.54652095],[127.041521486,37.546530233],[127.041475846,37.546542871],[127.041345097,37.546579072],[127.041153027,37.546632484],[127.041117126,37.546642254],[127.04107492,37.546653899],[127.040925903,37.546695017],[127.040837589,37.546719262],[127.040818657,37.54672446],[127.040775381,37.546736404],[127.040749022,37.546743665],[127.04066269,37.546767453],[127.040546456,37.546799315],[127.040525003,37.546805304],[127.040504198,37.546810916],[127.040464198,37.546822072],[127.040393872,37.546841685],[127.040281614,37.546872716],[127.0402346,37.546885615],[127.040209453,37.546892556],[127.040199401,37.546895331],[127.040124941,37.546915894],[127.040117191,37.546918035],[127.040115343,37.546913272],[127.040112296,37.546905422],[127.040092182,37.546911737],[127.04008356,37.546914326],[127.040048515,37.546924914],[127.03994471,37.546956276],[127.039802651,37.546999291],[127.03964339,37.547047635],[127.039479955,37.547097089],[127.039446597,37.547107188],[127.039445105,37.54710764],[127.039426829,37.547113173],[127.039368146,37.54713094],[127.039323865,37.547144342],[127.039322188,37.547141003],[127.039230652,37.54695875],[127.039208477,37.546964419],[127.037872816,37.54730595],[127.037818743,37.547319778],[127.037766548,37.54733312],[127.037781753,37.547370596],[127.037797669,37.547409838],[127.037859181,37.547561449],[127.037820133,37.547571022],[127.037399242,37.547676368],[127.037388586,37.547680429],[127.036971841,37.547839209],[127.036953622,37.54784615],[127.03672867,37.547568668],[127.036719066,37.547556822],[127.03652949,37.547322972],[127.036498502,37.547284747],[127.036407353,37.547172304],[127.035585415,37.546310434],[127.035312979,37.546116064],[127.035312579,37.546115778],[127.035311366,37.546114913],[127.03465895,37.545649436],[127.034517666,37.545547092],[127.0345166,37.54554632],[127.034516245,37.545546063],[127.03436047,37.545433222],[127.033606431,37.544961325],[127.033510494,37.544957124],[127.033510386,37.544957119],[127.033510191,37.544957111],[127.033388034,37.544951763],[127.033382338,37.544951513],[127.033160615,37.544941804],[127.032745324,37.545097141],[127.031421736,37.545592206],[127.031370973,37.545611192],[127.031167174,37.545687418],[127.031166554,37.545693491],[127.031163006,37.545728214],[127.031161887,37.545739444],[127.03115259,37.545832832],[127.031147159,37.545887405],[127.031145613,37.545900281],[127.031145153,37.545909084],[127.031149462,37.546046791],[127.031149532,37.546052845],[127.031157091,37.546078378],[127.031157248,37.546078909],[127.031181169,37.546159677],[127.031181928,37.546161073],[127.031228046,37.546205038],[127.031234689,37.546211443],[127.031239161,37.546213928],[127.031333444,37.546240007],[127.031485271,37.546248554],[127.031526575,37.546251085],[127.031671616,37.546264068],[127.031860226,37.546285643],[127.03188787,37.546288641],[127.031922557,37.546292403],[127.032140205,37.546314114],[127.03223027,37.546321255],[127.0322879,37.54632444],[127.032462645,37.546334096],[127.032722035,37.546349795],[127.032747032,37.546351762],[127.032935284,37.54640905],[127.033097447,37.546501458],[127.033114832,37.546511752],[127.033276119,37.546676554],[127.033335611,37.546738903],[127.033471333,37.546897513],[127.033540228,37.546981719],[127.033602932,37.547040582],[127.033931606,37.547358128],[127.034282161,37.547632806],[127.03456792,37.547802006],[127.03473635,37.547855224],[127.035113242,37.547952786],[127.035259985,37.547990973],[127.035301512,37.548010855],[127.035609774,37.54815743],[127.035621752,37.54816867],[127.035740666,37.548277513],[127.035831206,37.548401723],[127.035973858,37.548549426],[127.035998031,37.548575558],[127.036043586,37.548638325],[127.036057944,37.548658989],[127.036059654,37.54866145],[127.036065786,37.548668905],[127.03607042,37.548674538],[127.03609577,37.548704472],[127.036324224,37.548974241],[127.036457167,37.549165051],[127.03655727,37.549308728],[127.036745453,37.549558094],[127.036860872,37.54970984],[127.037104331,37.549986596],[127.037185037,37.550078338],[127.037224119,37.550118599],[127.037295672,37.550187404],[127.037673981,37.550536748],[127.037746973,37.550584973],[127.037849783,37.550654453],[127.037922764,37.55070595],[127.038525869,37.551099081],[127.038618401,37.551157922],[127.038783903,37.551240473],[127.039192895,37.551444805],[127.039395531,37.551560586],[127.039561949,37.551655672],[127.039580739,37.551665911],[127.03967943,37.551707891],[127.040110831,37.551893633],[127.040162053,37.551915689],[127.040221453,37.551941263],[127.040396537,37.551974496],[127.040397838,37.551974748],[127.040443098,37.552003899],[127.040648594,37.552122049],[127.040716774,37.55216102],[127.040749465,37.552179787],[127.040752556,37.552182299],[127.040837055,37.552262531],[127.040872041,37.552291955],[127.040876323,37.552295873],[127.040885797,37.552303952],[127.040894548,37.552311519],[127.040896688,37.552313309],[127.040910862,37.55232546],[127.040919185,37.552332521],[127.040988577,37.55239181],[127.040994622,37.552396989],[127.041000195,37.552401735],[127.041005222,37.552406024],[127.041011718,37.55241158],[127.041014176,37.552413687],[127.041182443,37.55255724],[127.041195257,37.552567111],[127.041360208,37.55268357],[127.041363352,37.552685255],[127.041527287,37.552766361],[127.041617406,37.552810945],[127.041641817,37.552817948],[127.041659597,37.552823117],[127.041985237,37.552917833],[127.042758573,37.553124387],[127.043247088,37.553222277],[127.043693376,37.55327191],[127.043719146,37.553273845],[127.0437759,37.553276483],[127.044014004,37.553287549],[127.044238899,37.553298002],[127.04542376,37.553416435],[127.045708238,37.553431769],[127.046052119,37.553450303],[127.045998405,37.553539215],[127.045907562,37.553689236],[127.046055879,37.553624552],[127.046364785,37.553489828],[127.046378732,37.553478777],[127.046403223,37.553462252],[127.046491882,37.553402413],[127.046544459,37.553366927],[127.046650035,37.553295673],[127.046697566,37.553257319],[127.046706107,37.553253126],[127.046870915,37.553174226],[127.046936227,37.553144966]]]]}}, {"type" : "Feature", "properties" : {"area_id" : 34, "area_code" : "11200670", "area_name" : "성수2가1동", "real_name" : null}, "geometry" : {"type":"MultiPolygon","coordinates":[[[[127.062854206,37.540177464],[127.062836512,37.540145966],[127.062781599,37.540048662],[127.062707584,37.539917803],[127.062676346,37.539866763],[127.062525827,37.539595425],[127.062513899,37.539573922],[127.062477164,37.539507273],[127.062405791,37.539377776],[127.062373236,37.539318707],[127.062367687,37.539308395],[127.062367266,37.539307602],[127.062358462,37.539291019],[127.062351448,37.539278624],[127.062295805,37.539176406],[127.06229386,37.539172834],[127.062290451,37.539166586],[127.062264399,37.539118843],[127.062256604,37.539104537],[127.062152442,37.538913347],[127.062099057,37.538817435],[127.061998804,37.538637309],[127.061900125,37.538458251],[127.061883268,37.538427662],[127.061792432,37.538262102],[127.061763668,37.538209672],[127.061665491,37.538030059],[127.061641823,37.537986757],[127.06159344,37.537900891],[127.061543547,37.537836883],[127.061471438,37.537708437],[127.061337295,37.537470138],[127.061273335,37.537356889],[127.061183282,37.537197734],[127.061183216,37.537197617],[127.061182214,37.537195846],[127.061058997,37.536976602],[127.061058657,37.536975995],[127.060926293,37.53674111],[127.060791782,37.536503604],[127.060749911,37.536429652],[127.060725351,37.536386273],[127.060722869,37.536379446],[127.060709435,37.536356294],[127.060707518,37.53635299],[127.060681277,37.536306521],[127.060616268,37.536190837],[127.060604911,37.536170626],[127.060527844,37.53603366],[127.060485275,37.535958161],[127.060472691,37.535935751],[127.06040764,37.535819914],[127.060380267,37.535771189],[127.060347648,37.535713131],[127.060263533,37.535564392],[127.060252493,37.535544682],[127.060171104,37.535399376],[127.06012266,37.535313322],[127.060091647,37.535258231],[127.06006441,37.535209908],[127.060016619,37.535125119],[127.060013608,37.535119775],[127.059963585,37.535030982],[127.059912929,37.534941648],[127.059889225,37.534899569],[127.059868901,37.53486349],[127.059861378,37.534848943],[127.059844644,37.534820534],[127.059837137,37.534807331],[127.059825407,37.534786701],[127.059768355,37.534685639],[127.059757168,37.534689849],[127.05975668,37.534690031],[127.059754975,37.534690545],[127.059753185,37.534690835],[127.059751362,37.53469089],[127.05974955,37.534690711],[127.0597478,37.534690303],[127.059746154,37.534689675],[127.059744655,37.534688845],[127.059743346,37.534687832],[127.059742257,37.534686666],[127.059741418,37.534685376],[127.059741227,37.534685016],[127.059716892,37.534638895],[127.059716294,37.534637418],[127.059716025,37.534635881],[127.059716088,37.534634331],[127.059716487,37.53463281],[127.059717206,37.534631368],[127.059718226,37.534630045],[127.059719516,37.534628882],[127.059721036,37.534627912],[127.059722743,37.534627163],[127.05973328,37.534623447],[127.059635827,37.534450518],[127.059555468,37.534308742],[127.059550545,37.53430048],[127.059542733,37.534287374],[127.059519361,37.534245339],[127.059499335,37.534246671],[127.059493442,37.534236049],[127.059277259,37.533846425],[127.059058078,37.53345195],[127.059043111,37.533424935],[127.058989871,37.533328845],[127.05863038,37.532684953],[127.05862211,37.532670128],[127.05857746,37.532590158],[127.058344623,37.532170039],[127.057905481,37.531378086],[127.057859181,37.531294514],[127.057496234,37.530639386],[127.057491548,37.530630926],[127.057468492,37.530589379],[127.057406799,37.530481438],[127.057355517,37.53039138],[127.057280796,37.530249926],[127.057111407,37.529941927],[127.057075489,37.529877307],[127.057034368,37.529803326],[127.056985292,37.529714737],[127.056938901,37.529630362],[127.056857382,37.529482492],[127.056778933,37.529340352],[127.056702645,37.529201302],[127.056628665,37.529067496],[127.05661441,37.529041713],[127.056523953,37.528878559],[127.056449197,37.528742741],[127.056383618,37.52862393],[127.056351275,37.528565058],[127.056324258,37.528515876],[127.056221543,37.528330969],[127.056214546,37.528318373],[127.056165454,37.528333612],[127.056071059,37.528362912],[127.055783907,37.528452325],[127.055632864,37.528499453],[127.055484175,37.528545832],[127.055299597,37.528603459],[127.05513327,37.52865538],[127.055115662,37.528660876],[127.055027212,37.52871794],[127.054899702,37.528800899],[127.054823737,37.528850352],[127.054767366,37.528887048],[127.054611463,37.528988877],[127.054467952,37.52908196],[127.054344105,37.529162681],[127.054282194,37.529203014],[127.054232541,37.52923536],[127.054184706,37.529265988],[127.054044214,37.529357502],[127.053928849,37.529431769],[127.053814861,37.5295046],[127.05375876,37.529540287],[127.053684872,37.529588379],[127.053564315,37.529666458],[127.053452646,37.529738119],[127.053387499,37.529780521],[127.053318892,37.529824565],[127.053304088,37.529834135],[127.053255587,37.529865489],[127.053222107,37.529887169],[127.053181269,37.529913616],[127.053125981,37.529949311],[127.053047559,37.530000215],[127.052961446,37.530055879],[127.05291878,37.53008318],[127.05279883,37.530160448],[127.052670241,37.530243286],[127.05258505,37.530298825],[127.052579866,37.530302204],[127.052539178,37.53032873],[127.052463332,37.530377849],[127.052405454,37.530415815],[127.052278483,37.530497824],[127.05216472,37.530571133],[127.052071085,37.530633369],[127.051929723,37.530720834],[127.0519207,37.530726415],[127.051799968,37.530801438],[127.051770871,37.530819636],[127.051699106,37.530864524],[127.051564399,37.530945801],[127.051468233,37.531003826],[127.051294095,37.531106973],[127.051224548,37.531148808],[127.051201511,37.531162666],[127.051152246,37.531192303],[127.051025447,37.531268093],[127.050919583,37.531330964],[127.050795465,37.531404464],[127.050679986,37.531473096],[127.050551261,37.531549675],[127.050494448,37.531583473],[127.050347088,37.531670574],[127.050338324,37.531675754],[127.050200305,37.531757675],[127.050057864,37.531842257],[127.05003916,37.531853376],[127.049936761,37.531914248],[127.049915536,37.531926865],[127.049786201,37.532003591],[127.049660363,37.532078164],[127.049533765,37.532153656],[127.049410256,37.532226993],[127.049408202,37.532228215],[127.04937757,37.53224643],[127.049273183,37.5323085],[127.049139788,37.532387841],[127.049011539,37.53246372],[127.048919175,37.532518979],[127.048919413,37.532519608],[127.048920365,37.532521988],[127.048947696,37.532590239],[127.048955916,37.532610768],[127.0489821,37.532676158],[127.04919764,37.53321164],[127.049330756,37.533542206],[127.049432572,37.533793975],[127.049509313,37.533984864],[127.049537598,37.534056112],[127.049558449,37.534109027],[127.049578044,37.534158808],[127.049596402,37.534205563],[127.049606126,37.534230173],[127.049609298,37.534238371],[127.049614834,37.534243784],[127.049645445,37.53431968],[127.049646571,37.534322471],[127.049696935,37.53444734],[127.050110174,37.535463319],[127.050138688,37.535533973],[127.050139196,37.535535215],[127.050216597,37.53572697],[127.050211325,37.535763786],[127.050211439,37.5357641],[127.050222764,37.535796533],[127.050224362,37.535801442],[127.050225303,37.535804307],[127.050226674,37.535808523],[127.05023861,37.535806733],[127.050239788,37.535809256],[127.050243143,37.535816392],[127.050253535,37.535827469],[127.050274947,37.535850292],[127.050284128,37.535860216],[127.050287279,37.535863482],[127.050304206,37.535881558],[127.05032034,37.535900066],[127.05032223,37.535902317],[127.050326735,37.535907617],[127.050376975,37.535967514],[127.050407016,37.536109498],[127.050405704,37.536162152],[127.050406062,37.53619074],[127.050406354,37.536214115],[127.050406411,37.536218662],[127.050405472,37.536226733],[127.05040416,37.536238025],[127.05040362,37.536242638],[127.050384871,37.536292913],[127.050380782,37.536303239],[127.050371214,37.536332892],[127.050368375,37.536341694],[127.050366136,37.536348628],[127.050364026,37.536357017],[127.050362695,37.536362343],[127.050360713,37.536378714],[127.050362056,37.536391021],[127.050370034,37.536418201],[127.050370719,37.536420539],[127.050375245,37.536435959],[127.050382388,37.536460289],[127.050393988,37.536499812],[127.050393848,37.536501606],[127.050393664,37.53650402],[127.050394574,37.536504023],[127.050395627,37.536504029],[127.050395801,37.536507187],[127.050395864,37.53650833],[127.050395871,37.536508458],[127.050395892,37.53650884],[127.050395971,37.536510263],[127.05039624,37.53651514],[127.050396247,37.536515262],[127.050396248,37.536515348],[127.050389395,37.536570264],[127.050389201,37.536571868],[127.050389121,37.536572554],[127.050388568,37.536581759],[127.050388388,37.536584966],[127.050388152,37.536588975],[127.050388148,37.536589048],[127.050387255,37.536604268],[127.05038724,37.53660453],[127.0503874,37.536604976],[127.050388052,37.536606788],[127.050397861,37.536634057],[127.050420069,37.536668326],[127.050420366,37.536668785],[127.050421258,37.536670162],[127.050427922,37.536680447],[127.050448502,37.536705622],[127.050473883,37.53673667],[127.050542432,37.536806545],[127.050542624,37.536806753],[127.050542811,37.53680696],[127.05054497,37.536809359],[127.050544993,37.536809384],[127.050553652,37.536819022],[127.050568184,37.536835225],[127.050586212,37.536855325],[127.050589278,37.536858744],[127.050599226,37.536869845],[127.050599255,37.536869876],[127.050603697,37.536874831],[127.050645895,37.53692189],[127.050646245,37.536922281],[127.050646592,37.536922666],[127.050647646,37.536923842],[127.050647949,37.53692418],[127.050652284,37.536929014],[127.050656089,37.536933259],[127.050713261,37.536997022],[127.050714027,37.536997875],[127.05071479,37.536998723],[127.050719659,37.53700415],[127.050720082,37.53700508],[127.05072049,37.537005978],[127.050720509,37.537006019],[127.050744721,37.537059186],[127.050747333,37.53706605],[127.050747496,37.537066476],[127.05074761,37.537066777],[127.050749736,37.537072364],[127.050765409,37.537113558],[127.050767694,37.537119565],[127.050767726,37.537119644],[127.050785415,37.537162697],[127.050786535,37.537165421],[127.050796031,37.537188531],[127.050797827,37.537196548],[127.050799694,37.53720488],[127.050799723,37.537205012],[127.050799763,37.537205192],[127.050802371,37.537216832],[127.050803115,37.537220155],[127.050810203,37.537251797],[127.050816175,37.537263319],[127.050834975,37.5372996],[127.050863093,37.537336],[127.050876228,37.537353006],[127.050880762,37.537358877],[127.050881822,37.537360249],[127.050889513,37.537370202],[127.050893207,37.53737498],[127.050893823,37.537375776],[127.050894436,37.537376567],[127.050900123,37.537383929],[127.050900176,37.537383997],[127.050900204,37.537384033],[127.050920099,37.537409788],[127.050929109,37.537423676],[127.05095205,37.537459041],[127.050954465,37.537462764],[127.050954654,37.537463057],[127.050954716,37.537463151],[127.050978459,37.537499752],[127.051016038,37.53755054],[127.051021981,37.537558572],[127.051025039,37.537562706],[127.051025121,37.537562817],[127.051025147,37.537562852],[127.0510315,37.53757144],[127.051089288,37.537638879],[127.051095744,37.537646414],[127.051096154,37.537646891],[127.05109667,37.537647494],[127.05109828,37.537649372],[127.05110232,37.537654086],[127.051141108,37.537699348],[127.051177093,37.537737727],[127.051186587,37.53774784],[127.051186762,37.537748028],[127.051186931,37.537748207],[127.051218885,37.53778228],[127.051261263,37.537824193],[127.05126129,37.537824219],[127.051265839,37.537828722],[127.051302321,37.537864842],[127.05130245,37.537864942],[127.051302546,37.537865024],[127.051394261,37.537955734],[127.051419926,37.537970816],[127.051439832,37.537982514],[127.051449054,37.537987933],[127.051474053,37.538002622],[127.051484205,37.538008589],[127.051485108,37.538009119],[127.051486133,37.538009722],[127.051486408,37.538009883],[127.051513563,37.53802584],[127.051513919,37.53802605],[127.051515014,37.538026693],[127.051516196,37.538027386],[127.051528686,37.538034459],[127.051532003,37.538036338],[127.051534195,37.538037581],[127.051534709,37.538037872],[127.051535044,37.538038062],[127.051570825,37.538058309],[127.051574472,37.538060372],[127.051574681,37.53806049],[127.051575303,37.538060841],[127.051578358,37.538062568],[127.051578715,37.53806277],[127.05159172,37.538070129],[127.051592828,37.538070756],[127.051593191,37.538070962],[127.051620467,37.538086395],[127.051683775,37.5381343],[127.051687153,37.538136856],[127.051725196,37.538165644],[127.051730043,37.538169312],[127.051765387,37.538191563],[127.051772457,37.538196016],[127.05180637,37.538215116],[127.051806679,37.53821529],[127.051806981,37.53821546],[127.051814865,37.538219902],[127.051824318,37.538227418],[127.051824363,37.538227454],[127.051867887,37.538262061],[127.051944432,37.538331193],[127.051944561,37.538331306],[127.051944682,37.538331412],[127.051993312,37.538375329],[127.052002658,37.53838377],[127.052003212,37.53838427],[127.052003394,37.538384435],[127.052014625,37.538394578],[127.052012516,37.538397753],[127.052012413,37.538397907],[127.052012381,37.538397956],[127.052012058,37.538398441],[127.052004203,37.538410267],[127.051935214,37.538514126],[127.051855792,37.538616812],[127.051855337,37.538617883],[127.051854966,37.538618755],[127.051833107,37.538670121],[127.051829002,37.538679765],[127.051822275,37.538695573],[127.051800284,37.538730714],[127.051755126,37.5388029],[127.051749185,37.538807083],[127.051733096,37.53881842],[127.051721259,37.538826762],[127.051709204,37.538835256],[127.051708633,37.538835417],[127.051706901,37.538835906],[127.051679484,37.538843622],[127.051567341,37.538875181],[127.051567289,37.538875196],[127.051560817,37.538877017],[127.051560059,37.53887723],[127.051559089,37.538877502],[127.051527685,37.53889002],[127.051527202,37.538890212],[127.051527043,37.538890276],[127.051487559,37.538906012],[127.051486982,37.538906242],[127.051485248,37.538906933],[127.051454364,37.538919242],[127.051424866,37.538931001],[127.051349831,37.53896837],[127.051349797,37.538968387],[127.051346913,37.538969823],[127.051339874,37.538973329],[127.051334244,37.538976133],[127.051334175,37.538976167],[127.051324427,37.538981022],[127.051292036,37.538997153],[127.051269457,37.539008397],[127.051235705,37.539027787],[127.051235677,37.539027803],[127.051232747,37.539029486],[127.05104347,37.539138225],[127.051016648,37.539153633],[127.050988034,37.539172284],[127.05098769,37.539172508],[127.050986659,37.539173179],[127.050977796,37.539178955],[127.050978245,37.539179614],[127.050978444,37.539179906],[127.050994878,37.539203944],[127.051018089,37.539237895],[127.051022001,37.539243622],[127.051055508,37.539276926],[127.051055618,37.539277034],[127.05105572,37.539277135],[127.051058657,37.539280052],[127.051071498,37.539292815],[127.051164254,37.539363332],[127.051171129,37.539368559],[127.051171294,37.539368685],[127.051177518,37.539373415],[127.051197365,37.539391914],[127.051197556,37.539392092],[127.051197741,37.539392265],[127.051232703,37.539424853],[127.051280044,37.539468983],[127.051330015,37.53951011],[127.051380795,37.539551902],[127.051409643,37.539578427],[127.051470615,37.539634525],[127.051470863,37.539634753],[127.051470944,37.539634826],[127.051505046,37.539687069],[127.051507191,37.539690351],[127.051535301,37.539733412],[127.051535493,37.539733706],[127.051536024,37.539734521],[127.051536324,37.539734984],[127.051484531,37.539748494],[127.051484207,37.53974858],[127.051484144,37.539748596],[127.051198862,37.539823013],[127.051197786,37.539823293],[127.05119758,37.539823347],[127.050735746,37.539943816],[127.050443296,37.540020099],[127.050445366,37.540034209],[127.050456136,37.540107582],[127.050456243,37.540108312],[127.050456446,37.540109698],[127.05045653,37.540110277],[127.050498798,37.540270608],[127.050499192,37.540272099],[127.05050083,37.540278314],[127.050551624,37.540470986],[127.050624542,37.54071386],[127.050624567,37.540713943],[127.05062638,37.540719982],[127.050626457,37.540720239],[127.050626531,37.540720486],[127.050628418,37.540726778],[127.050629356,37.540729909],[127.050646695,37.540787667],[127.050687006,37.540886954],[127.050665168,37.540906663],[127.05068417,37.540965381],[127.050695961,37.54100029],[127.050747236,37.541162748],[127.05074754,37.541163709],[127.050766646,37.541223615],[127.050782803,37.541275046],[127.050802079,37.54133745],[127.050817045,37.54138285],[127.050819031,37.541388872],[127.050819914,37.541391124],[127.050826998,37.541409186],[127.050838048,37.541436391],[127.050842037,37.541445806],[127.050843412,37.541452283],[127.050844109,37.541454591],[127.050848556,37.541480197],[127.050885194,37.541691089],[127.050890028,37.541718907],[127.0509228,37.541812371],[127.050999259,37.542030116],[127.051003072,37.542040974],[127.051018094,37.542083755],[127.051332118,37.54264786],[127.051497053,37.542889653],[127.051505213,37.542899307],[127.051678148,37.543103921],[127.051693651,37.543122264],[127.051701703,37.543131791],[127.051703911,37.543134838],[127.051704285,37.543135453],[127.051704647,37.543142752],[127.05170504,37.543150673],[127.051707659,37.543203505],[127.051736309,37.543247418],[127.051760682,37.543247407],[127.051760828,37.543247407],[127.051772753,37.543247401],[127.05177487,37.543247399],[127.051849034,37.543371371],[127.051857041,37.543384754],[127.051906293,37.543465754],[127.051906973,37.543466871],[127.051907393,37.543466748],[127.05190746,37.543466728],[127.051907601,37.543466687],[127.051928943,37.543460436],[127.052346875,37.543338024],[127.052635949,37.543253352],[127.052646686,37.543250207],[127.05264675,37.543250189],[127.052752925,37.54321909],[127.052753026,37.54321906],[127.052763895,37.543215876],[127.052790636,37.543208043],[127.052790884,37.543207971],[127.052791141,37.543207895],[127.052791749,37.543207717],[127.053026168,37.54313905],[127.053202586,37.543087371],[127.053203974,37.54308696],[127.053204221,37.543086887],[127.053204823,37.543086708],[127.053511975,37.542995552],[127.053516833,37.54299411],[127.053516991,37.542994064],[127.053517079,37.542994037],[127.053644799,37.542956128],[127.05364494,37.542956086],[127.053645082,37.542956044],[127.053772418,37.542918251],[127.053772598,37.542918197],[127.053772658,37.542918179],[127.053920703,37.542874239],[127.053921087,37.542874125],[127.053967204,37.542860437],[127.053967443,37.542860366],[127.053967524,37.542860342],[127.054054218,37.542834609],[127.054220819,37.542785158],[127.054221879,37.542784844],[127.054222941,37.542784529],[127.054228493,37.542782879],[127.054228993,37.542782731],[127.054229309,37.542782637],[127.054229861,37.542782473],[127.054239312,37.542779667],[127.054239451,37.542779625],[127.054239565,37.542779591],[127.054243629,37.542778384],[127.054414694,37.542727609],[127.05444107,37.54271978],[127.054581195,37.542678188],[127.0546488,37.542658122],[127.054750534,37.542627925],[127.054760766,37.542624888],[127.054773756,37.542621032],[127.054774407,37.542620839],[127.054774874,37.542620701],[127.054781123,37.542618846],[127.055008948,37.542551224],[127.055014715,37.542549513],[127.055027056,37.54254585],[127.055142935,37.542511452],[127.055219755,37.542488649],[127.055604795,37.542372675],[127.055604923,37.542372635],[127.055605028,37.542372604],[127.055612243,37.542370431],[127.055613906,37.54236993],[127.055614461,37.542369763],[127.055618516,37.542368541],[127.055619404,37.542368271],[127.055620297,37.542368001],[127.056246999,37.54217923],[127.056247599,37.54217905],[127.056248199,37.542178869],[127.05625135,37.542177917],[127.056253472,37.542177279],[127.056254579,37.542176945],[127.05625501,37.542176816],[127.056255257,37.542176742],[127.056869726,37.541991645],[127.056873872,37.541990397],[127.056874046,37.541990345],[127.056874103,37.541990327],[127.056882181,37.541987895],[127.056882631,37.541987759],[127.056883982,37.541987353],[127.058026047,37.541643319],[127.058027107,37.541643],[127.05802817,37.541642681],[127.05803007,37.541642108],[127.05803029,37.541642042],[127.058030471,37.541641987],[127.058030921,37.541641852],[127.058123649,37.541613916],[127.05846964,37.541509901],[127.059442287,37.541217485],[127.059448845,37.541215513],[127.059449028,37.541215458],[127.059449088,37.54121544],[127.059460698,37.541211948],[127.059460793,37.54121192],[127.059461183,37.541211802],[127.059461607,37.541211675],[127.060112336,37.54101603],[127.060112901,37.54101586],[127.060112984,37.541015835],[127.060113291,37.541015743],[127.060883283,37.540784235],[127.060883967,37.54078403],[127.060884653,37.540783824],[127.0608916,37.540781735],[127.060891843,37.540781661],[127.060892056,37.540781598],[127.060892745,37.54078139],[127.061490966,37.540601523],[127.061491524,37.540601355],[127.06149159,37.540601336],[127.061491843,37.54060126],[127.061494967,37.540600319],[127.061536108,37.54058795],[127.061536169,37.540587931],[127.061575533,37.540576095],[127.062138704,37.540400531],[127.062163941,37.540392662],[127.062168006,37.540391394],[127.062168157,37.540391347],[127.062168243,37.54039132],[127.062440147,37.540306552],[127.062443927,37.540305375],[127.062826274,37.540186173],[127.062852359,37.54017804],[127.062854206,37.540177464]]]]}}, {"type" : "Feature", "properties" : {"area_id" : 33, "area_code" : "11200690", "area_name" : "성수2가3동", "real_name" : null}, "geometry" : {"type":"MultiPolygon","coordinates":[[[[127.067465188,37.548328863],[127.067463241,37.548325429],[127.067453774,37.548308732],[127.067258109,37.54796364],[127.067132894,37.547741068],[127.067021596,37.547543233],[127.066944731,37.547406604],[127.066918155,37.54736049],[127.06690588,37.547339191],[127.066812867,37.547173914],[127.066662173,37.54690614],[127.066648515,37.54688187],[127.066644803,37.546875275],[127.06662727,37.546844111],[127.066620554,37.546844104],[127.066615716,37.54684409],[127.066510781,37.546657624],[127.066438258,37.546528751],[127.066251961,37.546196414],[127.06617779,37.546063705],[127.066150294,37.546014508],[127.065942209,37.545642195],[127.065941563,37.545641033],[127.06593616,37.545631374],[127.065928083,37.545616937],[127.065925143,37.545611686],[127.065915079,37.5455937],[127.065884433,37.545538657],[127.065861438,37.54549716],[127.065853573,37.545482966],[127.065771468,37.545339599],[127.06572518,37.545258289],[127.065718239,37.545246097],[127.065639859,37.545108414],[127.065601929,37.545042688],[127.065588468,37.545018257],[127.065587527,37.545016549],[127.065584341,37.545010765],[127.065576172,37.544995935],[127.065466373,37.544796623],[127.065405675,37.544689847],[127.065153244,37.544245779],[127.065117767,37.544181906],[127.06511755,37.544181514],[127.065106103,37.5441609],[127.064881698,37.543756879],[127.064861218,37.543720721],[127.064667468,37.543380317],[127.064588317,37.543241251],[127.064533189,37.543147412],[127.064507623,37.543103892],[127.064315399,37.542767177],[127.064301822,37.542743032],[127.064286335,37.542715486],[127.064240969,37.542634807],[127.064151533,37.542475009],[127.064083554,37.54235589],[127.064045683,37.542289227],[127.064012175,37.542230041],[127.0640117,37.542229208],[127.063982791,37.542178387],[127.063965374,37.542147768],[127.063963049,37.542143656],[127.06387141,37.541981585],[127.063822491,37.541896313],[127.06377732,37.54181522],[127.063727303,37.541728517],[127.063669115,37.54162533],[127.063666971,37.541621528],[127.063603527,37.541509019],[127.063563707,37.541439809],[127.063533758,37.541386251],[127.0635006,37.541326759],[127.063467737,37.541268518],[127.063417708,37.541179364],[127.063334907,37.541031968],[127.063269003,37.540916035],[127.06323792,37.54086103],[127.063206203,37.540804904],[127.06314081,37.540689584],[127.063070588,37.540565518],[127.063020525,37.540477211],[127.06298832,37.540417368],[127.062971095,37.540385362],[127.062892975,37.540246479],[127.062863385,37.540193808],[127.062854206,37.540177464],[127.062852359,37.54017804],[127.062826274,37.540186173],[127.062443927,37.540305375],[127.062440147,37.540306552],[127.062168243,37.54039132],[127.062168157,37.540391347],[127.062168006,37.540391394],[127.062163941,37.540392662],[127.062138704,37.540400531],[127.061575533,37.540576095],[127.061536169,37.540587931],[127.061536108,37.54058795],[127.061494967,37.540600319],[127.061491843,37.54060126],[127.06149159,37.540601336],[127.061491524,37.540601355],[127.061490966,37.540601523],[127.060892745,37.54078139],[127.060892056,37.540781598],[127.060891843,37.540781661],[127.0608916,37.540781735],[127.060884653,37.540783824],[127.060883967,37.54078403],[127.060883283,37.540784235],[127.060113291,37.541015743],[127.060112984,37.541015835],[127.060112901,37.54101586],[127.060112336,37.54101603],[127.059461607,37.541211675],[127.059461183,37.541211802],[127.059460793,37.54121192],[127.059460698,37.541211948],[127.059449088,37.54121544],[127.059449028,37.541215458],[127.059448845,37.541215513],[127.059442287,37.541217485],[127.05846964,37.541509901],[127.058123649,37.541613916],[127.058030921,37.541641852],[127.058030471,37.541641987],[127.05803029,37.541642042],[127.05803007,37.541642108],[127.05802817,37.541642681],[127.058027107,37.541643],[127.058026047,37.541643319],[127.056883982,37.541987353],[127.056882631,37.541987759],[127.056882181,37.541987895],[127.056874103,37.541990327],[127.056874046,37.541990345],[127.056873872,37.541990397],[127.056869726,37.541991645],[127.056255257,37.542176742],[127.05625501,37.542176816],[127.056254579,37.542176945],[127.056253472,37.542177279],[127.05625135,37.542177917],[127.056248199,37.542178869],[127.056247599,37.54217905],[127.056246999,37.54217923],[127.055620297,37.542368001],[127.055619404,37.542368271],[127.055618516,37.542368541],[127.055614461,37.542369763],[127.055613906,37.54236993],[127.055612243,37.542370431],[127.055605028,37.542372604],[127.055604923,37.542372635],[127.055604795,37.542372675],[127.055219755,37.542488649],[127.055142935,37.542511452],[127.055027056,37.54254585],[127.055014715,37.542549513],[127.055008948,37.542551224],[127.054781123,37.542618846],[127.054774874,37.542620701],[127.054774407,37.542620839],[127.054773756,37.542621032],[127.054760766,37.542624888],[127.054750534,37.542627925],[127.0546488,37.542658122],[127.054581195,37.542678188],[127.05444107,37.54271978],[127.054414694,37.542727609],[127.054243629,37.542778384],[127.054239565,37.542779591],[127.054239451,37.542779625],[127.054239312,37.542779667],[127.054229861,37.542782473],[127.054229309,37.542782637],[127.054228993,37.542782731],[127.054228493,37.542782879],[127.054222941,37.542784529],[127.054221879,37.542784844],[127.054220819,37.542785158],[127.054054218,37.542834609],[127.053967524,37.542860342],[127.053967443,37.542860366],[127.053967204,37.542860437],[127.053921087,37.542874125],[127.053920703,37.542874239],[127.053772658,37.542918179],[127.053772598,37.542918197],[127.053772418,37.542918251],[127.053645082,37.542956044],[127.05364494,37.542956086],[127.053644799,37.542956128],[127.053517079,37.542994037],[127.053516991,37.542994064],[127.053516833,37.54299411],[127.053511975,37.542995552],[127.053204823,37.543086708],[127.053204221,37.543086887],[127.053203974,37.54308696],[127.053202586,37.543087371],[127.053026168,37.54313905],[127.052791749,37.543207717],[127.052791141,37.543207895],[127.052790884,37.543207971],[127.052790636,37.543208043],[127.052763895,37.543215876],[127.052753026,37.54321906],[127.052752925,37.54321909],[127.05264675,37.543250189],[127.052646686,37.543250207],[127.052635949,37.543253352],[127.052346875,37.543338024],[127.051928943,37.543460436],[127.051907601,37.543466687],[127.05190746,37.543466728],[127.051907393,37.543466748],[127.051906973,37.543466871],[127.051911053,37.54347358],[127.051913533,37.543477658],[127.051799116,37.543510009],[127.051707597,37.543535886],[127.051687824,37.543541893],[127.05125983,37.543671923],[127.051014247,37.543746533],[127.050800698,37.543810864],[127.050752669,37.54382517],[127.050662304,37.543852088],[127.050624124,37.543863672],[127.050512869,37.543897429],[127.050448709,37.543916895],[127.049811403,37.544109191],[127.049700278,37.54414272],[127.049686743,37.544146818],[127.049592474,37.544175353],[127.049593701,37.544179128],[127.049594746,37.544182351],[127.04965925,37.544381162],[127.049668029,37.54440822],[127.049693131,37.544484911],[127.049877046,37.545050173],[127.049878149,37.545053881],[127.049966884,37.545352093],[127.050027033,37.545501138],[127.050107389,37.545701467],[127.050110702,37.545709728],[127.050322291,37.546240254],[127.050339794,37.546284034],[127.050358141,37.546329924],[127.050321181,37.546534681],[127.050449167,37.546852929],[127.050457001,37.546872163],[127.05046872,37.546900809],[127.050471902,37.546907883],[127.050482986,37.546932518],[127.050488087,37.546943751],[127.050497553,37.546968424],[127.050515278,37.5470129],[127.050530966,37.54705261],[127.050546824,37.547092526],[127.050562204,37.547131388],[127.050580228,37.547177043],[127.05060166,37.547230984],[127.050629138,37.547301403],[127.05064325,37.547337599],[127.050660196,37.547380759],[127.050676233,37.547421459],[127.050695413,37.547470052],[127.050713015,37.547514725],[127.050730266,37.547557983],[127.050748356,37.547603285],[127.050765599,37.547647229],[127.050776831,37.547676263],[127.050791204,37.547713639],[127.050812209,37.547767311],[127.050823927,37.547797445],[127.050823952,37.54779751],[127.050831956,37.547818093],[127.050843112,37.547853028],[127.050957127,37.548141094],[127.050958277,37.548143999],[127.050959174,37.548146034],[127.050985736,37.548206328],[127.051006456,37.548258252],[127.051024344,37.548304177],[127.051052115,37.548373417],[127.051071223,37.548419927],[127.051094291,37.548477202],[127.051110478,37.548518668],[127.05111182,37.54852214],[127.051126484,37.548560088],[127.051137525,37.548590023],[127.051160834,37.548653606],[127.051164121,37.548662064],[127.051201777,37.548756662],[127.051239657,37.548853826],[127.051245339,37.548868402],[127.051249442,37.548880087],[127.051255667,37.54889614],[127.051355803,37.549149086],[127.051400339,37.549262783],[127.051484031,37.549476416],[127.051528479,37.549590887],[127.051531975,37.549599827],[127.051546257,37.549636348],[127.051566432,37.549687934],[127.051648453,37.5498941],[127.051711151,37.550050991],[127.051711967,37.550053053],[127.051842534,37.550386202],[127.05186966,37.550455287],[127.051921623,37.550587656],[127.051952469,37.550666175],[127.052096217,37.550803148],[127.052110854,37.550817092],[127.052131951,37.550837196],[127.052177806,37.550826245],[127.052310191,37.550794629],[127.052872042,37.550658957],[127.052891506,37.550654255],[127.052892094,37.550654121],[127.053505825,37.550507419],[127.053612111,37.550482013],[127.053641082,37.55047522],[127.053645845,37.550474103],[127.053672013,37.550467968],[127.053707775,37.550454491],[127.053940442,37.550358413],[127.053994099,37.55033628],[127.053998796,37.55033434],[127.054216201,37.550246297],[127.054541116,37.550112661],[127.054572933,37.550099537],[127.054895782,37.549966352],[127.054991098,37.549927055],[127.054991607,37.549926848],[127.055125527,37.549871635],[127.055180864,37.549849091],[127.055231847,37.549828322],[127.055416681,37.54975268],[127.055594,37.549679853],[127.055885695,37.549560004],[127.056030038,37.549500922],[127.056078602,37.54948114],[127.056089109,37.54947686],[127.056153428,37.549450662],[127.056380501,37.54935716],[127.056410743,37.549344739],[127.056411081,37.5493446],[127.056512207,37.549303067],[127.056647926,37.549246836],[127.056676992,37.54923771],[127.056682177,37.549236082],[127.056920744,37.549161186],[127.056939738,37.549155237],[127.056977611,37.549143369],[127.0569852,37.549140991],[127.057058702,37.549117963],[127.057080251,37.549111282],[127.057108406,37.549102553],[127.057155866,37.549087837],[127.057175691,37.549081691],[127.057175751,37.549081671],[127.057252624,37.549057837],[127.05736941,37.549021627],[127.05737259,37.549020707],[127.057397627,37.549013451],[127.057422813,37.549006348],[127.057737024,37.54891719],[127.057739797,37.548916403],[127.057744306,37.548915124],[127.057761673,37.548910195],[127.058063527,37.548824637],[127.058082285,37.548819321],[127.058086097,37.548818239],[127.058289326,37.548760734],[127.058424061,37.548722612],[127.058639844,37.548661553],[127.058679948,37.548650206],[127.058821952,37.548616241],[127.059185805,37.548534281],[127.059549377,37.548452852],[127.059717688,37.548414495],[127.059879378,37.548393503],[127.060056498,37.548368343],[127.060075343,37.548365666],[127.060132772,37.548358864],[127.060148018,37.548357058],[127.060197952,37.548351144],[127.060538382,37.548301285],[127.060757699,37.548269045],[127.060781047,37.548265596],[127.060996635,37.548233749],[127.061066522,37.548223338],[127.061066655,37.548223318],[127.061190456,37.548204875],[127.061254669,37.548195591],[127.061322274,37.548185816],[127.061459814,37.548176572],[127.061459867,37.548176568],[127.061801237,37.548153624],[127.062045631,37.548136767],[127.062336756,37.548116623],[127.06243082,37.548110315],[127.062630498,37.548096921],[127.062727259,37.548097141],[127.06280768,37.548097323],[127.062927306,37.548097596],[127.062984923,37.548100319],[127.063026791,37.548102301],[127.063179835,37.548105962],[127.063402445,37.548111283],[127.063598853,37.548115978],[127.063626916,37.548116648],[127.063822797,37.548121331],[127.064005236,37.548125691],[127.064055439,37.548127223],[127.064675374,37.548146129],[127.064690921,37.548146598],[127.065208167,37.548162167],[127.065221718,37.548162575],[127.065482551,37.548185282],[127.065528657,37.548189296],[127.065855921,37.548215588],[127.066013653,37.548227784],[127.066294949,37.548249533],[127.066340023,37.548253154],[127.066373403,37.548255838],[127.066496997,37.548265769],[127.066511148,37.548266906],[127.066539575,37.548269192],[127.066600602,37.548274002],[127.06704215,37.548308802],[127.067175655,37.548319324],[127.067448506,37.548339416],[127.067442997,37.54832967],[127.067464316,37.548328892],[127.067465188,37.548328863]]]]}}]}
